     3.02           N: GNSS NAV DATA    E: Galileo      RINEX VERSION / TYPE
RINEXConverter      RTK_Trans           20250715 063646 UTC PGM / RUN BY / DATE
                                                            LEAP SECONDS
                                                            END OF HEADER
E15 2025 05 28 08 50 00 -.176489062100D-03 -.238742400000D-11  .000000000000D+00 
      .104000000000D+03 -.143400000000D+02  .281550000000D-08  .120594616000D+01 
     -.616540000000D-06  .186362536600D-03 -.491550000000D-05  .544060300000D+04 
      .291000000000D+06 -.122930000000D-06  .190970838400D+01 -.223520000000D-07 
      .999229023800D+00  .466800000000D+03 -.108670916500D+00 -.592203239000D-08 
     -.151430000000D-09  .517000000000D+03  .236800000000D+04                                       
      .312000000000D+01  .000000000000D+00  .512200000000D-08  .558800000000D-08 
      .291000000000D+06 
E03 2025 05 28 08 50 00 -.194430642300D-03 -.238742400000D-11  .000000000000D+00 
      .104000000000D+03 -.500900000000D+02  .291980000000D-08 -.283315908000D+00 
     -.216630000000D-05  .417458009900D-03  .113730000000D-04  .544061045000D+04 
      .291000000000D+06 -.335280000000D-07 -.228705072300D+01  .521540000000D-07 
      .964424848000D+00  .975900000000D+02  .802125487600D-01 -.520485966000D-08 
      .952180000000D-09  .517000000000D+03  .236800000000D+04                                       
      .312000000000D+01  .000000000000D+00  .139700000000D-08  .163000000000D-08 
      .291000000000D+06 
E05 2025 05 28 09 00 00  .485564122200D-02  .308375500000D-11  .000000000000D+00 
      .105000000000D+03 -.280300000000D+02  .288800000000D-08  .125101600000D+01 
     -.141930000000D-05  .312270363800D-03  .112910000000D-04  .544061497000D+04 
      .291600000000D+06 -.104310000000D-06 -.228704622800D+01  .335280000000D-07 
      .964439638100D+00  .100000000000D+03 -.598650235200D+00 -.519914514000D-08 
      .911820000000D-09  .517000000000D+03  .236800000000D+04                                       
      .312000000000D+01  .000000000000D+00  .186300000000D-08  .209500000000D-08 
      .291600000000D+06 
E03 2025 05 28 09 00 00 -.194431981100D-03 -.238742400000D-11  .000000000000D+00 
      .105000000000D+03 -.486200000000D+02  .290940000000D-08 -.209131577000D+00 
     -.211970000000D-05  .417652539900D-03  .113400000000D-04  .544061086000D+04 
      .291600000000D+06 -.335280000000D-07 -.228705384800D+01  .540170000000D-07 
      .964425428800D+00  .985600000000D+02  .804137716800D-01 -.520378819000D-08 
      .951830000000D-09  .517000000000D+03  .236800000000D+04                                       
      .312000000000D+01  .000000000000D+00  .139700000000D-08  .163000000000D-08 
      .291600000000D+06 